FALCONSAT-6             
1 43815U 18099BK  26068.72544389  .00005029  00000+0  19477-3 0  9998
2 43815  97.3865 145.8165 0014370 297.0944 181.0714 15.26532865398556
STARLINK-35309          
1 66323U 25253E   26068.44853025  .00028955  00000+0  10574-2 0  9997
2 66323  43.0018 214.2055 0001941 253.3362 106.7276 15.27587607 20207
